[{"OBJECT_NAME":"STARLINK-3521","OBJECT_ID":"2022-016AE","EPOCH":"2026-03-09T23:25:25.862592","MEAN_MOTION":15.08832872,"ECCENTRICITY":0.0001343,"INCLINATION":53.2193,"RA_OF_ASC_NODE":318.0267,"ARG_OF_PERICENTER":102.0093,"MEAN_ANOMALY":258.105,"EPHEMERIS_TYPE":0,"CLASSIFICATION_TYPE":"U","NORAD_CAT_ID":51742,"ELEMENT_SET_NO":999,"REV_AT_EPOCH":22360,"BSTAR":-2.4279645e-5,"MEAN_MOTION_DOT":-6.74e-6,"MEAN_MOTION_DDOT":0},{"OBJECT_NAME":"LEMUR-2-KREMPEL-BRO2","OBJECT_ID":"2025-061C","EPOCH":"2026-03-09T20:43:52.091904","MEAN_MOTION":15.13192951,"ECCENTRICITY":0.00179248,"INCLINATION":97.5616,"RA_OF_ASC_NODE":45.5365,"ARG_OF_PERICENTER":236.8576,"MEAN_ANOMALY":123.0936,"EPHEMERIS_TYPE":0,"CLASSIFICATION_TYPE":"U","NORAD_CAT_ID":63353,"ELEMENT_SET_NO":999,"REV_AT_EPOCH":5258,"BSTAR":0.00044346981,"MEAN_MOTION_DOT":7.837e-5,"MEAN_MOTION_DDOT":0}]
